STARLINK-36269          
1 67472U 26008AD  26031.91670139 -.00059000  00000+0 -38342-3 0  9998
2 67472  43.0001  56.2679 0001341 264.9223 307.3183 15.75053500  3906
STARLINK-36408          
1 67473U 26008AE  26031.91670139  .00004344  00000+0  31382-4 0  9996
2 67473  43.0002  56.2580 0001839 264.5532 311.5153 15.75032250  3903
ALSAT-3A                
1 67474U 26009A   26031.96216367  .00006533  00000+0  27775-3 0  9994
2 67474  97.4700 106.6594 0011832 197.2020 162.8818 15.23313733  2539
CZ-2C R/B               
1 67475U 26009B   26031.92282793  .00003663  00000+0  24779-3 0  9999
2 67475  97.1789 105.1689 0099842 164.6574 195.7719 15.03060677  2553
TIANQI-37               
1 67476U 26010A   26031.92701422  .00000623  00000+0  39849-3 0  9994
2 67476  44.9836 330.1459 0013152  32.6064 327.5585 14.13520283  2280
TIANQI-38               
1 67477U 26010B   26031.92455305  .00000622  00000+0  39543-3 0  9991
2 67477  44.9798 330.1267 0011926  37.8116 322.3558 14.13897259  2280
TIANQI-39               
1 67478U 26010C   26030.37016323  .00000342  00000+0  25056-3 0  9996
2 67478  44.9851 337.2202 0014472  36.2785 323.9032 14.13517056  2066
TIANQI-40               
1 67479U 26010D   26028.88577045  .00000320  00000+0  23705-3 0  9998
2 67479  44.9851 343.9821 0013061  21.9564 338.1832 14.13986611  1856
SZ-20 MODULE            
1 67481U 25082C   26031.82836286  .00020967  00000+0  23541-3 0  9999
2 67481  41.4791  72.0561 0006168  61.8960 298.2502 15.62109929271851
ION SCV-021             
1 67483U 25276DT  26031.91430881  .00000528  00000+0  50237-4 0  9991
2 67483  97.5409 107.3071 0011171 219.4220 140.6190 14.97373681  2219
STARLINK-36551          
1 67493U 26012A   26031.91670139 -.01693957  00000+0 -71119-2 0  9990
2 67493  42.9964 166.9351 0001514 279.0938  38.9394 15.87469088  3156
STARLINK-36396          
1 67494U 26012B   26031.91670139 -.02365463  00000+0 -10748-1 0  9990
2 67494  42.9962 166.9372 0001709 279.0348  38.2065 15.85907728  3153
