CCSDS_OMM_VERS = 2.0
CREATION_DATE  = 
ORIGINATOR     = 

OBJECT_NAME    = STARLINK-36269
OBJECT_ID      = 2026-008AD
CENTER_NAME    = EARTH
REF_FRAME      = TEME
TIME_SYSTEM    = UTC
MEAN_ELEMENT_THEORY = SGP/SGP4

EPOCH          = 2026-01-31T22:00:03.000096
MEAN_MOTION    = 15.75053500
ECCENTRICITY   = .00013414
INCLINATION    = 43.0001
RA_OF_ASC_NODE = 56.2679
ARG_OF_PERICENTER = 264.9223
MEAN_ANOMALY   = 307.3183

EPHEMERIS_TYPE = 0
CLASSIFICATION_TYPE = U
NORAD_CAT_ID   = 67472
ELEMENT_SET_NO = 999
REV_AT_EPOCH   = 390
BSTAR          = -.38342369E-3
MEAN_MOTION_DOT = -.59E-3
MEAN_MOTION_DDOT = 0

CCSDS_OMM_VERS = 2.0
CREATION_DATE  = 
ORIGINATOR     = 

OBJECT_NAME    = STARLINK-36408
OBJECT_ID      = 2026-008AE
CENTER_NAME    = EARTH
REF_FRAME      = TEME
TIME_SYSTEM    = UTC
MEAN_ELEMENT_THEORY = SGP/SGP4

EPOCH          = 2026-01-31T22:00:03.000096
MEAN_MOTION    = 15.75032250
ECCENTRICITY   = .0001839
INCLINATION    = 43.0002
RA_OF_ASC_NODE = 56.2580
ARG_OF_PERICENTER = 264.5532
MEAN_ANOMALY   = 311.5153

EPHEMERIS_TYPE = 0
CLASSIFICATION_TYPE = U
NORAD_CAT_ID   = 67473
ELEMENT_SET_NO = 999
REV_AT_EPOCH   = 390
BSTAR          = .31382468E-4
MEAN_MOTION_DOT = .4344E-4
MEAN_MOTION_DDOT = 0

CCSDS_OMM_VERS = 2.0
CREATION_DATE  = 
ORIGINATOR     = 

OBJECT_NAME    = ALSAT-3A
OBJECT_ID      = 2026-009A
CENTER_NAME    = EARTH
REF_FRAME      = TEME
TIME_SYSTEM    = UTC
MEAN_ELEMENT_THEORY = SGP/SGP4

EPOCH          = 2026-01-31T23:05:30.941088
MEAN_MOTION    = 15.23313733
ECCENTRICITY   = .00118321
INCLINATION    = 97.4700
RA_OF_ASC_NODE = 106.6594
ARG_OF_PERICENTER = 197.2020
MEAN_ANOMALY   = 162.8818

EPHEMERIS_TYPE = 0
CLASSIFICATION_TYPE = U
NORAD_CAT_ID   = 67474
ELEMENT_SET_NO = 999
REV_AT_EPOCH   = 253
BSTAR          = .27775189E-3
MEAN_MOTION_DOT = .6533E-4
MEAN_MOTION_DDOT = 0

CCSDS_OMM_VERS = 2.0
CREATION_DATE  = 
ORIGINATOR     = 

OBJECT_NAME    = CZ-2C R/B
OBJECT_ID      = 2026-009B
CENTER_NAME    = EARTH
REF_FRAME      = TEME
TIME_SYSTEM    = UTC
MEAN_ELEMENT_THEORY = SGP/SGP4

EPOCH          = 2026-01-31T22:08:52.333152
MEAN_MOTION    = 15.03060677
ECCENTRICITY   = .00998422
INCLINATION    = 97.1789
RA_OF_ASC_NODE = 105.1689
ARG_OF_PERICENTER = 164.6574
MEAN_ANOMALY   = 195.7719

EPHEMERIS_TYPE = 0
CLASSIFICATION_TYPE = U
NORAD_CAT_ID   = 67475
ELEMENT_SET_NO = 999
REV_AT_EPOCH   = 255
BSTAR          = .2477866E-3
MEAN_MOTION_DOT = .3663E-4
MEAN_MOTION_DDOT = 0

CCSDS_OMM_VERS = 2.0
CREATION_DATE  = 
ORIGINATOR     = 

OBJECT_NAME    = TIANQI-37
OBJECT_ID      = 2026-010A
CENTER_NAME    = EARTH
REF_FRAME      = TEME
TIME_SYSTEM    = UTC
MEAN_ELEMENT_THEORY = SGP/SGP4

EPOCH          = 2026-01-31T22:14:54.028608
MEAN_MOTION    = 14.13520283
ECCENTRICITY   = .00131525
INCLINATION    = 44.9836
RA_OF_ASC_NODE = 330.1459
ARG_OF_PERICENTER = 32.6064
MEAN_ANOMALY   = 327.5585

EPHEMERIS_TYPE = 0
CLASSIFICATION_TYPE = U
NORAD_CAT_ID   = 67476
ELEMENT_SET_NO = 999
REV_AT_EPOCH   = 228
BSTAR          = .39849481E-3
MEAN_MOTION_DOT = .623E-5
MEAN_MOTION_DDOT = 0

CCSDS_OMM_VERS = 2.0
CREATION_DATE  = 
ORIGINATOR     = 

OBJECT_NAME    = TIANQI-38
OBJECT_ID      = 2026-010B
CENTER_NAME    = EARTH
REF_FRAME      = TEME
TIME_SYSTEM    = UTC
MEAN_ELEMENT_THEORY = SGP/SGP4

EPOCH          = 2026-01-31T22:11:21.383520
MEAN_MOTION    = 14.13897259
ECCENTRICITY   = .00119262
INCLINATION    = 44.9798
RA_OF_ASC_NODE = 330.1267
ARG_OF_PERICENTER = 37.8116
MEAN_ANOMALY   = 322.3558

EPHEMERIS_TYPE = 0
CLASSIFICATION_TYPE = U
NORAD_CAT_ID   = 67477
ELEMENT_SET_NO = 999
REV_AT_EPOCH   = 228
BSTAR          = .3954295E-3
MEAN_MOTION_DOT = .622E-5
MEAN_MOTION_DDOT = 0

CCSDS_OMM_VERS = 2.0
CREATION_DATE  = 
ORIGINATOR     = 

OBJECT_NAME    = TIANQI-39
OBJECT_ID      = 2026-010C
CENTER_NAME    = EARTH
REF_FRAME      = TEME
TIME_SYSTEM    = UTC
MEAN_ELEMENT_THEORY = SGP/SGP4

EPOCH          = 2026-01-30T08:53:02.103072
MEAN_MOTION    = 14.13517056
ECCENTRICITY   = .0014472
INCLINATION    = 44.9851
RA_OF_ASC_NODE = 337.2202
ARG_OF_PERICENTER = 36.2785
MEAN_ANOMALY   = 323.9032

EPHEMERIS_TYPE = 0
CLASSIFICATION_TYPE = U
NORAD_CAT_ID   = 67478
ELEMENT_SET_NO = 999
REV_AT_EPOCH   = 206
BSTAR          = .25056E-3
MEAN_MOTION_DOT = .342E-5
MEAN_MOTION_DDOT = 0

CCSDS_OMM_VERS = 2.0
CREATION_DATE  = 
ORIGINATOR     = 

OBJECT_NAME    = TIANQI-40
OBJECT_ID      = 2026-010D
CENTER_NAME    = EARTH
REF_FRAME      = TEME
TIME_SYSTEM    = UTC
MEAN_ELEMENT_THEORY = SGP/SGP4

EPOCH          = 2026-01-28T21:15:30.566880
MEAN_MOTION    = 14.13986611
ECCENTRICITY   = .0013061
INCLINATION    = 44.9851
RA_OF_ASC_NODE = 343.9821
ARG_OF_PERICENTER = 21.9564
MEAN_ANOMALY   = 338.1832

EPHEMERIS_TYPE = 0
CLASSIFICATION_TYPE = U
NORAD_CAT_ID   = 67479
ELEMENT_SET_NO = 999
REV_AT_EPOCH   = 185
BSTAR          = .23704672E-3
MEAN_MOTION_DOT = .32E-5
MEAN_MOTION_DDOT = 0

CCSDS_OMM_VERS = 2.0
CREATION_DATE  = 
ORIGINATOR     = 

OBJECT_NAME    = SZ-20 MODULE
OBJECT_ID      = 2025-082C
CENTER_NAME    = EARTH
REF_FRAME      = TEME
TIME_SYSTEM    = UTC
MEAN_ELEMENT_THEORY = SGP/SGP4

EPOCH          = 2026-01-31T19:52:50.551104
MEAN_MOTION    = 15.62109929
ECCENTRICITY   = .00061682
INCLINATION    = 41.4791
RA_OF_ASC_NODE = 72.0561
ARG_OF_PERICENTER = 61.8960
MEAN_ANOMALY   = 298.2502

EPHEMERIS_TYPE = 0
CLASSIFICATION_TYPE = U
NORAD_CAT_ID   = 67481
ELEMENT_SET_NO = 999
REV_AT_EPOCH   = 27185
BSTAR          = .23540724E-3
MEAN_MOTION_DOT = .20967E-3
MEAN_MOTION_DDOT = 0

CCSDS_OMM_VERS = 2.0
CREATION_DATE  = 
ORIGINATOR     = 

OBJECT_NAME    = ION SCV-021
OBJECT_ID      = 2025-276DT
CENTER_NAME    = EARTH
REF_FRAME      = TEME
TIME_SYSTEM    = UTC
MEAN_ELEMENT_THEORY = SGP/SGP4

EPOCH          = 2026-01-31T21:56:36.281184
MEAN_MOTION    = 14.97373681
ECCENTRICITY   = .00111714
INCLINATION    = 97.5409
RA_OF_ASC_NODE = 107.3071
ARG_OF_PERICENTER = 219.4220
MEAN_ANOMALY   = 140.6190

EPHEMERIS_TYPE = 0
CLASSIFICATION_TYPE = U
NORAD_CAT_ID   = 67483
ELEMENT_SET_NO = 999
REV_AT_EPOCH   = 221
BSTAR          = .5023696E-4
MEAN_MOTION_DOT = .528E-5
MEAN_MOTION_DDOT = 0

CCSDS_OMM_VERS = 2.0
CREATION_DATE  = 
ORIGINATOR     = 

OBJECT_NAME    = STARLINK-36551
OBJECT_ID      = 2026-012A
CENTER_NAME    = EARTH
REF_FRAME      = TEME
TIME_SYSTEM    = UTC
MEAN_ELEMENT_THEORY = SGP/SGP4

EPOCH          = 2026-01-31T22:00:03.000096
MEAN_MOTION    = 15.87469088
ECCENTRICITY   = .00015149
INCLINATION    = 42.9964
RA_OF_ASC_NODE = 166.9351
ARG_OF_PERICENTER = 279.0938
MEAN_ANOMALY   = 38.9394

EPHEMERIS_TYPE = 0
CLASSIFICATION_TYPE = U
NORAD_CAT_ID   = 67493
ELEMENT_SET_NO = 999
REV_AT_EPOCH   = 315
BSTAR          = -.71118828E-2
MEAN_MOTION_DOT = -.1693957E-1
MEAN_MOTION_DDOT = 0

CCSDS_OMM_VERS = 2.0
CREATION_DATE  = 
ORIGINATOR     = 

OBJECT_NAME    = STARLINK-36396
OBJECT_ID      = 2026-012B
CENTER_NAME    = EARTH
REF_FRAME      = TEME
TIME_SYSTEM    = UTC
MEAN_ELEMENT_THEORY = SGP/SGP4

EPOCH          = 2026-01-31T22:00:03.000096
MEAN_MOTION    = 15.85907728
ECCENTRICITY   = .00017095
INCLINATION    = 42.9962
RA_OF_ASC_NODE = 166.9372
ARG_OF_PERICENTER = 279.0348
MEAN_ANOMALY   = 38.2065

EPHEMERIS_TYPE = 0
CLASSIFICATION_TYPE = U
NORAD_CAT_ID   = 67494
ELEMENT_SET_NO = 999
REV_AT_EPOCH   = 315
BSTAR          = -.10748304E-1
MEAN_MOTION_DOT = -.2365463E-1
MEAN_MOTION_DDOT = 0

